OBJECT_NAME,OBJECT_ID,EPOCH,MEAN_MOTION,ECCENTRICITY,INCLINATION,RA_OF_ASC_NODE,ARG_OF_PERICENTER,MEAN_ANOMALY,EPHEMERIS_TYPE,CLASSIFICATION_TYPE,NORAD_CAT_ID,ELEMENT_SET_NO,REV_AT_EPOCH,BSTAR,MEAN_MOTION_DOT,MEAN_MOTION_DDOT
PERSEUS-M1,2014-033AF,2026-06-10T01:52:40.520064,14.95611900,.00107249,97.9645,105.0938,328.4585,31.5991,0,U,40039,999,64957,.13256399E-3,.1412E-4,0
POLYITAN-1,2014-033AJ,2026-06-10T00:04:54.323328,15.33005372,.00081138,98.0952,186.5861,161.9908,198.1621,0,U,40042,999,65249,.56929436E-3,.18102E-3,0
TIGRISAT,2014-033AK,2026-06-10T04:13:50.355264,14.85135319,.00507086,97.7822,311.3494,97.5926,263.1053,0,U,40043,999,64458,.241094E-3,.2056E-4,0
AEROCUBE 6A,2014-033AM,2026-06-10T06:39:27.337536,14.98032072,.00393189,97.7224,328.3001,41.0482,319.3687,0,U,40045,999,64558,.46996751E-3,.5583E-4,0
AEROCUBE 6B,2014-033AN,2026-06-09T08:27:13.837536,14.99486502,.00389335,97.7232,327.1573,35.9586,324.4245,0,U,40046,999,64558,.474951E-3,.5861E-4,0
CANX-4,2014-034C,2026-06-09T22:10:30.223488,14.81251246,.00136411,98.3132,35.9700,39.2768,320.9431,0,U,40055,999,64345,.11365033E-3,.829E-5,0
CANX-5,2014-034D,2026-06-10T04:37:27.513120,14.81268948,.00136362,98.3134,36.2920,38.5954,321.6230,0,U,40056,999,63430,.11271039E-3,.822E-5,0
UKUBE-1,2014-037F,2026-06-09T18:19:34.652928,15.13433815,.0002164,98.4238,163.2558,144.4016,215.7357,0,U,40074,999,64743,.48408E-3,.8577E-4,0
BRITE-PL2 (HEWELIUSZ),2014-049B,2026-06-09T19:23:21.725376,14.94571041,.00151621,97.9090,272.7516,130.3835,229.8711,0,U,40119,999,64034,.16872442E-3,.1769E-4,0
AEROCUBE 5C,2015-058B,2026-06-10T01:30:55.698624,14.91420489,.01304782,64.7677,284.7519,66.0614,295.4099,0,U,40965,999,36459,.20677837E-3,.2259E-4,0
AEROCUBE 7,2015-058C,2026-06-10T00:18:37.548576,14.95680433,.0120192,64.7626,267.2861,64.5565,296.7929,0,U,40966,999,36488,.25994946E-3,.3171E-4,0
FOX-1A (AO-85),2015-058D,2026-06-10T02:36:07.731648,14.90935600,.01300364,64.7758,300.9815,59.3571,302.0285,0,U,40967,999,11251,.22165749E-3,.24E-4,0
SINOD-D 1,2015-058E,2026-06-09T17:23:01.757760,14.95857939,.011862,64.7758,282.2824,56.0584,305.1740,0,U,40968,999,11554,.26884E-3,.329E-4,0
SNAP-3 ALICE,2015-058G,2026-06-10T04:23:29.329440,15.58486832,.00301627,64.7495,128.1133,16.6557,343.5571,0,U,40970,999,11579,.15177965E-2,.120629E-2,0
LMRST-SAT,2015-058H,2026-06-09T23:52:33.614400,14.90557514,.01317019,64.7764,297.6590,61.4271,300.0021,0,U,40971,999,11248,.20841847E-3,.2231E-4,0
SNAP-3 EDDIE,2015-058J,2026-06-10T01:12:26.901504,15.59635087,.0030021,64.7416,119.3485,20.7248,339.5107,0,U,40972,999,11791,.14562836E-2,.120897E-2,0
PROPCUBE 3,2015-058K,2026-06-10T01:09:12.116160,14.94218236,.01237217,64.7691,274.8403,62.7299,298.6352,0,U,40973,999,11373,.24069538E-3,.2829E-4,0
BISONSAT,2015-058L,2026-06-10T04:09:17.028864,15.16042716,.00784857,64.7590,196.3188,50.1692,310.6304,0,U,40974,999,11455,.46239858E-3,.9463E-4,0
SNAP-3 JIMI,2015-058M,2026-06-09T14:24:16.714080,15.02233651,.01058062,64.7650,243.7760,58.4680,302.6719,0,U,40975,999,11308,.29586767E-3,.4229E-4,0
PROPCUBE 1 (FLORA),2015-058N,2026-06-10T03:28:15.085056,14.89189029,.01304432,64.7753,317.0626,63.6769,297.7671,0,U,40976,999,11521,.22435724E-3,.2318E-4,0
SINOD-D 3,2015-058P,2026-06-09T21:03:58.190112,14.93969758,.01189089,64.7732,298.6433,61.0397,300.2577,0,U,40977,999,11366,.27746456E-3,.3229E-4,0
HORYU-4,2016-012D,2026-06-10T02:36:09.976320,15.90526809,.00034613,30.9844,130.8123,226.4757,133.5616,0,U,41340,999,56968,.10043265E-2,.337518E-2,0
RAVAN,2016-067B,2026-06-09T23:05:27.711456,15.53985227,.00054699,97.9902,49.7028,50.9650,309.2088,0,U,41849,999,52657,.76981762E-3,.49899E-3,0
CELTEE 1,2016-067C,2026-06-09T21:33:23.824224,15.19610924,.00006596,98.0682,26.9682,109.8261,250.3043,0,U,41850,999,52477,.2438453E-3,.5116E-4,0
OPTICUBE 04,2016-067D,2026-06-10T02:52:10.733952,15.09631218,.00165888,98.0713,13.0348,137.7001,222.5509,0,U,41851,999,52410,.13391138E-3,.2088E-4,0
AEROCUBE 8D,2016-067E,2026-06-09T14:33:30.634848,15.24291902,.00042528,98.0698,30.2015,142.1108,218.0427,0,U,41852,999,52491,.28467076E-3,.6876E-4,0
AEROCUBE 8C,2016-067F,2026-06-10T03:47:23.036928,15.24546142,.00068191,98.0571,28.0315,88.2255,271.9761,0,U,41853,999,52499,.28523822E-3,.6945E-4,0
CORVUS BC2,2017-042X,2026-06-09T21:17:54.816864,15.06248195,.00142076,97.4054,322.5225,132.8249,227.4176,0,U,42846,999,48596,.17768664E-3,.2553E-4,0
CORVUS BC1,2017-042Y,2026-06-09T22:46:59.793888,15.06416487,.0013225,97.4081,323.3911,111.4047,248.8593,0,U,42847,999,48600,.20310757E-3,.2939E-4,0
MAKERSAT 0,2017-073D,2026-06-10T04:35:06.174816,15.31854691,.01056916,97.4634,43.6556,298.3481,60.7133,0,U,43016,999,46539,.49572616E-3,.18116E-3,0
